NORAD_CAT_ID,OBJECT_NAME,OBJECT_TYPE,EPOCH,MEAN_MOTION,ECCENTRICITY,INCLINATION,RA_OF_ASC_NODE,ARG_OF_PERICENTER,MEAN_ANOMALY,BSTAR,MEAN_MOTION_DOT,MEAN_MOTION_DDOT,TLE_LINE0,TLE_LINE1,TLE_LINE2,SEMIMAJOR_AXIS,PERIOD,APOGEE,PERIGEE,DECAYED
51964.0,STARLINK-3690,PAYLOAD,2022-09-20 09:36:40,15.08843911,0.0002358,53.2197,313.716,39.1602,320.956,2.3136e-05,8e-07,0.0,0 STARLINK-3690,1 51964U 22025J   22263.40047035  .00000080  00000-0  23136-4 0  9991,2 51964  53.2197 313.7160 0002358  39.1602 320.9560 15.08843911 30035,6917.868,95.437,541.365,538.102,0.0
51964.0,STARLINK-3690,PAYLOAD,2022-09-20 15:58:13,15.08845167,0.0002247,53.2182,312.5248,36.9399,323.1748,3.0001e-05,1.89e-06,0.0,0 STARLINK-3690,1 51964U 22025J   22263.66542901  .00000189  00000-0  30001-4 0  9990,2 51964  53.2182 312.5248 0002247  36.9399 323.1748 15.08845167 30070,6917.865,95.437,541.284,538.175,0.0
51964.0,STARLINK-3690,PAYLOAD,2022-09-21 06:16:41,15.08844828,0.0002191999999999,53.2185,309.8476,38.0845,322.0302,7.8348e-05,9.59e-06,0.0,0 STARLINK-3690,1 51964U 22025J   22264.26158920  .00000959  00000-0  78348-4 0  9992,2 51964  53.2185 309.8476 0002192  38.0845 322.0302 15.08844828 31251,6917.866,95.437,541.247,538.214,0.0
51964.0,STARLINK-3690,PAYLOAD,2022-09-21 12:38:14,15.08840269,0.0001988,53.2185,308.6577,44.1382,315.9769,2.8047e-05,1.58e-06,0.0,0 STARLINK-3690,1 51964U 22025J   22264.52655118  .00000158  00000-0  28047-4 0  9994,2 51964  53.2185 308.6577 0001988  44.1382 315.9769 15.08840269 30203,6917.88,95.438,541.12,538.369,0.0
51964.0,STARLINK-3690,PAYLOAD,2022-09-22 12:29:01,15.08832848,0.0002088,53.2197,304.1976,35.7007,324.4125,8.906e-06,-1.47e-06,0.0,0 STARLINK-3690,1 51964U 22025J   22265.52015981 -.00000147  00000-0  89060-5 0  9995,2 51964  53.2197 304.1976 0002088  35.7007 324.4125 15.08832848 30353,6917.901999999999,95.438,541.212,538.323,0.0
51964.0,STARLINK-3690,PAYLOAD,2022-09-22 14:04:24,15.08835526,0.0002115,53.2196,303.9,36.3161,323.7975,-2.3439e-05,-6.61e-06,0.0,0 STARLINK-3690,1 51964U 22025J   22265.58639874 -.00000661  00000-0 -23439-4 0  9993,2 51964  53.2196 303.9000 0002115  36.3161 323.7975 15.08835526 30368,6917.894,95.438,541.222,538.2959999999998,0.0
51964.0,STARLINK-3690,PAYLOAD,2022-09-23 05:58:16,15.08838565,0.0002145999999999,53.2194,300.9268,35.1886,324.9248,4.4648e-05,4.22e-06,0.0,0 STARLINK-3690,1 51964U 22025J   22266.24879635  .00000422  00000-0  44648-4 0  9996,2 51964  53.2194 300.9268 0002146  35.1886 324.9248 15.08838565 31558,6917.885,95.438,541.234,538.265,0.0
51964.0,STARLINK-3690,PAYLOAD,2022-09-23 09:09:02,15.08841226,0.0002171999999999,53.2195,300.3321,36.295,323.8189,6.9234e-05,8.14e-06,0.0,0 STARLINK-3690,1 51964U 22025J   22266.38127414  .00000814  00000-0  69234-4 0  9995,2 51964  53.2195 300.3321 0002172  36.2950 323.8189 15.08841226 30487,6917.877,95.437,541.244,538.239,0.0
51964.0,STARLINK-3690,PAYLOAD,2022-09-23 13:55:11,15.08843276,0.000218,53.2194,299.44,36.4622,323.6518,8.266799999999999e-05,1.028e-05,0.0,0 STARLINK-3690,1 51964U 22025J   22266.57999225  .00001028  00000-0  82668-4 0  9997,2 51964  53.2194 299.4400 0002180  36.4622 323.6518 15.08843276 30514,6917.87,95.437,541.243,538.227,0.0
51964.0,STARLINK-3690,PAYLOAD,2022-09-24 08:59:49,15.0883937,0.0002150999999999,53.2194,295.8715,39.8246,320.2904,0.00014999,2.1e-05,0.0,0 STARLINK-3690,1 51964U 22025J   22267.37487304  .00002100  00000-0  14999-3 0  9999,2 51964  53.2194 295.8715 0002151  39.8246 320.2904 15.08839370 31726,6917.882,95.438,541.235,538.259,0.0
51964.0,STARLINK-3690,PAYLOAD,2022-09-24 18:32:08,15.08837785,0.0002184,53.2192,294.088,35.4293,324.6844,0.00010499,1.383e-05,0.0,0 STARLINK-3690,1 51964U 22025J   22267.77231593  .00001383  00000-0  10499-3 0  9993,2 51964  53.2192 294.0880 0002184  35.4293 324.6844 15.08837785 30692,6917.887,95.438,541.263,538.241,0.0
51964.0,STARLINK-3690,PAYLOAD,2022-09-25 10:26:00,15.08833674,0.000231,53.2191,291.115,38.1052,322.0103,-6.1957e-05,-1.274e-05,0.0,0 STARLINK-3690,1 51964U 22025J   22268.43472294 -.00001274  00000-0 -61957-4 0  9999,2 51964  53.2191 291.1150 0002310  38.1052 322.0103 15.08833674 31888,6917.9,95.438,541.363,538.1669999999998,0.0
51964.0,STARLINK-3690,PAYLOAD,2022-09-26 07:06:00,15.08836101,0.0002351,53.219,287.2488,38.0216,322.0942,7.3593e-05,8.83e-06,0.0,0 STARLINK-3690,1 51964U 22025J   22269.29583873  .00000883  00000-0  73593-4 0  9992,2 51964  53.2190 287.2488 0002351  38.0216 322.0942 15.08836101 32018,6917.892,95.438,541.384,538.131,0.0
51964.0,STARLINK-3690,PAYLOAD,2022-09-26 08:41:23,15.08837662,0.0002346999999999,53.2191,286.9515,38.7812,321.3348,9.0822e-05,1.157e-05,0.0,0 STARLINK-3690,1 51964U 22025J   22269.36207804  .00001157  00000-0  90822-4 0  9996,2 51964  53.2191 286.9515 0002347  38.7812 321.3348 15.08837662 30934,6917.888000000001,95.438,541.376,538.129,0.0
51964.0,STARLINK-3690,PAYLOAD,2022-09-26 13:27:32,15.08840961,0.0002346999999999,53.2193,286.0591,39.9375,320.1789,0.00011654,1.567e-05,0.0,0 STARLINK-3690,1 51964U 22025J   22269.56079603  .00001567  00000-0  11654-3 0  9992,2 51964  53.2193 286.0591 0002347  39.9375 320.1789 15.08840961 30963,6917.877,95.437,541.366,538.119,0.0
51964.0,STARLINK-3690,PAYLOAD,2022-09-27 08:32:10,15.088479500000002,0.0002448,53.2189,282.4917,43.0735,317.0448,-3.8116e-05,-8.95e-06,0.0,0 STARLINK-3690,1 51964U 22025J   22270.35567627 -.00000895  00000-0 -38116-4 0  9997,2 51964  53.2189 282.4917 0002448  43.0735 317.0448 15.08847950 32175,6917.856,95.437,541.415,538.028,0.0
51964.0,STARLINK-3690,PAYLOAD,2022-09-27 13:18:20,15.08838246,0.0002449,53.2192,281.5991,43.5113,316.6072,7.011699999999999e-05,8.28e-06,0.0,0 STARLINK-3690,1 51964U 22025J   22270.55440059  .00000828  00000-0  70117-4 0  9999,2 51964  53.2192 281.5991 0002449  43.5113 316.6072 15.08838246 32207,6917.886,95.438,541.445,538.057,0.0
51964.0,STARLINK-3690,PAYLOAD,2022-09-28 09:58:21,15.08839127,0.0002286,53.2198,277.7328,42.1701,317.9467,5.3134e-05,5.57e-06,0.0,0 STARLINK-3690,1 51964U 22025J   22271.41552122  .00000557  00000-0  53134-4 0  9999,2 51964  53.2198 277.7328 0002286  42.1701 317.9467 15.08839127 31245,6917.8830000000025,95.438,541.3290000000002,538.1669999999998,0.0
51964.0,STARLINK-3690,PAYLOAD,2022-09-29 03:27:35,15.08833201,0.0002515,53.2196,274.4635,31.4208,328.6934,0.0001721999999999,2.453e-05,0.0,0 STARLINK-3690,1 51964U 22025J   22272.14416327  .00002453  00000-0  17220-3 0  9998,2 51964  53.2196 274.4635 0002515  31.4208 328.6934 15.08833201 32444,6917.901,95.438,541.506,538.026,0.0
51964.0,STARLINK-3690,PAYLOAD,2022-09-29 09:49:09,15.0882647,0.0002381,53.2193,273.2728,41.6448,318.4725,3.3438e-05,2.44e-06,0.0,0 STARLINK-3690,1 51964U 22025J   22272.40913339  .00000244  00000-0  33438-4 0  9998,2 51964  53.2193 273.2728 0002381  41.6448 318.4725 15.08826470 32480,6917.922,95.438,541.434,538.14,0.0
51964.0,STARLINK-3690,PAYLOAD,2022-09-29 17:46:04,15.08828421,0.0002438,53.2191,271.7866,41.1607,318.9569,2.0435e-05,3.7e-07,0.0,0 STARLINK-3690,1 51964U 22025J   22272.74033544  .00000037  00000-0  20435-4 0  9999,2 51964  53.2191 271.7866 0002438  41.1607 318.9569 15.08828421 31443,6917.916,95.438,541.467,538.094,0.0
51964.0,STARLINK-3690,PAYLOAD,2022-09-30 03:18:23,15.08836136,0.0002438,53.219,270.0034,38.7635,321.3532,0.00010681,1.412e-05,0.0,0 STARLINK-3690,1 51964U 22025J   22273.13776934  .00001412  00000-0  10681-3 0  9999,2 51964  53.2190 270.0034 0002438  38.7635 321.3532 15.08836136 32591,6917.892,95.438,541.444,538.071,0.0
51964.0,STARLINK-3690,PAYLOAD,2022-09-30 09:39:55,15.08843164,0.0002346999999999,53.2189,268.8129,40.9286,319.1882,0.00016247,2.299e-05,0.0,0 STARLINK-3690,1 51964U 22025J   22273.40272527  .00002299  00000-0  16247-3 0  9996,2 51964  53.2189 268.8129 0002347  40.9286 319.1882 15.08843164 32632,6917.871,95.437,541.359,538.112,0.0
51964.0,STARLINK-3690,PAYLOAD,2022-10-01 09:30:41,15.08854061,0.0002373,53.2193,264.35200000000003,38.6555,321.4607,0.00023498,3.455e-05,0.0,0 STARLINK-3690,1 51964U 22025J   22274.39631860  .00003455  00000-0  23498-3 0  9995,2 51964  53.2193 264.3520 0002373  38.6555 321.4607 15.08854061 31699,6917.837,95.437,541.344,538.061,0.0
51964.0,STARLINK-3690,PAYLOAD,2022-10-01 15:52:14,15.08852111,0.0002396999999999,53.2183,263.1629,40.4694,319.6476,0.00034915,5.275e-05,0.0,0 STARLINK-3690,1 51964U 22025J   22274.66128078  .00005275  00000-0  34915-3 0  9995,2 51964  53.2183 263.1629 0002397  40.4694 319.6476 15.08852111 32829,6917.843000000003,95.437,541.367,538.05,0.0
51964.0,STARLINK-3690,PAYLOAD,2022-10-02 07:46:05,15.08842451,0.0002368,53.2189,260.1887,40.179,319.9376,-1.4067e-05,-5.12e-06,0.0,0 STARLINK-3690,1 51964U 22025J   22275.32368029 -.00000512  00000-0 -14067-4 0  9999,2 51964  53.2189 260.1887 0002368  40.1790 319.9376 15.08842451 31838,6917.873000000001,95.437,541.376,538.1,0.0
51964.0,STARLINK-3690,PAYLOAD,2022-10-03 04:26:05,15.08854925,0.0002419,53.2193,256.3271,37.0993,323.0166,6.5178e-05,7.49e-06,0.0,0 STARLINK-3690,1 51964U 22025J   22276.18479024  .00000749  00000-0  65178-4 0  9991,2 51964  53.2193 256.3271 0002419  37.0993 323.0166 15.08854925 33052,6917.835,95.437,541.373,538.026,0.0
51964.0,STARLINK-3690,PAYLOAD,2022-10-03 10:47:38,15.08849615,0.000222,53.2184,255.1352,41.2933,318.8227,1.5387e-06,-2.64e-06,0.0,0 STARLINK-3690,1 51964U 22025J   22276.44975153 -.00000264  00000-0  15387-5 0  9995,2 51964  53.2184 255.1352 0002220  41.2933 318.8227 15.08849615 32004,6917.851,95.437,541.252,538.18,0.0
51964.0,STARLINK-3690,PAYLOAD,2022-10-04 07:27:38,15.08853342,0.0001786,53.2179,251.2685,44.2098,315.9036,0.00028094,4.188e-05,0.0,0 STARLINK-3690,1 51964U 22025J   22277.31086578  .00004188  00000-0  28094-3 0  9991,2 51964  53.2179 251.2685 0001786  44.2098 315.9036 15.08853342 32137,6917.84,95.437,540.94,538.469,0.0
